1 00000           26000.00000000 -.00000191  00000-0 -22059-3 0 00003
2 00000 099.3862 083.4356 0010035 271.3501 252.8983 13.69119597
1 00001           26000.00000000 -.00000258  00000-0 -29819-3 0 00009
2 00001 099.3862 083.4356 0010028 271.4478 282.8005 13.69119650
1 00002           26000.00000000  .00000109  00000-0  12567-3 0 00005
2 00002 099.3861 083.4356 0010009 271.5185 312.7301 13.69119286
1 00003           26000.00000000  .00000601  00000-0  69575-3 0 00004
2 00003 099.3861 083.4355 0009986 271.5127 342.7362 13.69118836
1 00004           26000.00000000  .00000722  00000-0  83559-3 0 00007
2 00004 099.3862 083.4355 0009969 271.4346 012.8143 13.69118785
1 00005           26000.00000000  .00000282  00000-0  32649-3 0 00003
2 00005 099.3862 083.4355 0009963 271.3354 042.9130 13.69119277
1 00006           26000.00000000 -.00000392  00000-0 -45299-3 0 00003
2 00006 099.3862 083.4356 0009964 271.2387 073.0093 13.69119948
1 00007           26000.00000000 -.00000753  00000-0 -87091-3 0 00001
2 00007 099.3862 083.4356 0009971 271.1404 103.1075 13.69120252
1 00008           26000.00000000 -.00000548  00000-0 -63378-3 0 00006
2 00008 099.3861 083.4356 0009990 271.0706 133.1775 13.69119978
1 00009           26000.00000000 -.00000041  00000-0 -47088-4 0 00006
2 00009 099.3861 083.4355 0010013 271.0780 163.1706 13.69119433
1 00010           26000.00000000  .00000266  00000-0  30825-3 0 00005
2 00010 099.3862 083.4355 0010030 271.1564 193.0923 13.69119127
1 00011           26000.00000000  .00000135  00000-0  15613-3 0 00009
2 00011 099.3862 083.4355 0010036 271.2546 222.9941 13.69119272
1 00012           26000.00000000 -.00000185  00000-0 -21417-3 0 00003
2 00012 099.4356 146.6159 0010034 271.3476 252.7956 13.69118898
1 00013           26000.00000000 -.00000254  00000-0 -29374-3 0 00001
2 00013 099.4355 146.6159 0010026 271.4455 282.6978 13.69118952
1 00014           26000.00000000  .00000111  00000-0  12848-3 0 00000
2 00014 099.4355 146.6159 0010008 271.5164 312.6272 13.69118589
1 00015           26000.00000000  .00000604  00000-0  69900-3 0 00009
2 00015 099.4355 146.6158 0009985 271.5108 342.6330 13.69118138
1 00016           26000.00000000  .00000727  00000-0  84122-3 0 00009
2 00016 099.4355 146.6158 0009968 271.4329 012.7109 13.69118085
1 00017           26000.00000000  .00000289  00000-0  33443-3 0 00003
2 00017 099.4356 146.6158 0009962 271.3337 042.8097 13.69118576
1 00018           26000.00000000 -.00000384  00000-0 -44477-3 0 00001
2 00018 099.4356 146.6159 0009962 271.2369 072.9060 13.69119247
1 00019           26000.00000000 -.00000747  00000-0 -86446-3 0 00007
2 00019 099.4355 146.6159 0009970 271.1385 103.0042 13.69119553
1 00020           26000.00000000 -.00000544  00000-0 -62931-3 0 00006
2 00020 099.4355 146.6159 0009988 271.0684 133.0745 13.69119280
1 00021           26000.00000000 -.00000037  00000-0 -42966-4 0 00001
2 00021 099.4355 146.6158 0010011 271.0756 163.0678 13.69118735
1 00022           26000.00000000  .00000271  00000-0  31373-3 0 00000
2 00022 099.4355 146.6158 0010028 271.1539 192.9898 13.69118428
1 00023           26000.00000000  .00000141  00000-0  16294-3 0 00002
2 00023 099.4356 146.6158 0010034 271.2521 222.8914 13.69118572
1 00024           26000.00000000 -.00000184  00000-0 -21299-3 0 00000
2 00024 099.4922 178.2100 0010032 271.3452 252.7796 13.69118099
1 00025           26000.00000000 -.00000253  00000-0 -29311-3 0 00001
2 00025 099.4922 178.2100 0010025 271.4431 282.6817 13.69118154
1 00026           26000.00000000  .00000111  00000-0  12860-3 0 00004
2 00026 099.4922 178.2100 0010006 271.5140 312.6110 13.69117791
1 00027           26000.00000000  .00000604  00000-0  69909-3 0 00008
2 00027 099.4922 178.2100 0009983 271.5085 342.6168 13.69117340
1 00028           26000.00000000  .00000728  00000-0  84184-3 0 00008
2 00028 099.4922 178.2100 0009966 271.4306 012.6947 13.69117287
1 00029           26000.00000000  .00000290  00000-0  33581-3 0 00008
2 00029 099.4922 178.2100 0009960 271.3313 042.7935 13.69117777
1 00030           26000.00000000 -.00000383  00000-0 -44288-3 0 00000
2 00030 099.4922 178.2100 0009960 271.2345 072.8899 13.69118447
1 00031           26000.00000000 -.00000746  00000-0 -86252-3 0 00001
2 00031 099.4922 178.2100 0009968 271.1360 102.9882 13.69118753
1 00032           26000.00000000 -.00000543  00000-0 -62762-3 0 00007
2 00032 099.4922 178.2100 0009987 271.0659 133.0586 13.69118481
1 00033           26000.00000000 -.00000036  00000-0 -41474-4 0 00003
2 00033 099.4922 178.2100 0010010 271.0730 163.0519 13.69117936
1 00034           26000.00000000  .00000272  00000-0  31521-3 0 00006
2 00034 099.4922 178.2100 0010026 271.1513 192.9738 13.69117628
1 00035           26000.00000000  .00000142  00000-0  16440-3 0 00006
2 00035 099.4922 178.2100 0010033 271.2496 222.8755 13.69117773
1 00036           26000.00000000 -.00000185  00000-0 -21380-3 0 00002
2 00036 099.5495 209.8095 0010031 271.3428 252.7962 13.69117289
1 00037           26000.00000000 -.00000254  00000-0 -29394-3 0 00003
2 00037 099.5495 209.8095 0010023 271.4407 282.6983 13.69117344
1 00038           26000.00000000  .00000110  00000-0  12771-3 0 00004
2 00038 099.5495 209.8095 0010005 271.5117 312.6276 13.69116981
1 00039           26000.00000000  .00000603  00000-0  69799-3 0 00004
2 00039 099.5495 209.8095 0009982 271.5062 342.6334 13.69116530
1 00040           26000.00000000  .00000727  00000-0  84056-3 0 00005
2 00040 099.5495 209.8095 0009965 271.4281 012.7114 13.69116477
1 00041           26000.00000000  .00000289  00000-0  33470-3 0 00003
2 00041 099.5495 209.8095 0009958 271.3288 042.8103 13.69116967
1 00042           26000.00000000 -.00000383  00000-0 -44340-3 0 00009
2 00042 099.5495 209.8095 0009959 271.2319 072.9067 13.69117637
1 00043           26000.00000000 -.00000745  00000-0 -86233-3 0 00009
2 00043 099.5495 209.8095 0009967 271.1334 103.0051 13.69117942
1 00044           26000.00000000 -.00000542  00000-0 -62703-3 0 00001
2 00044 099.5495 209.8095 0009985 271.0633 133.0754 13.69117669
1 00045           26000.00000000 -.00000035  00000-0 -41037-4 0 00007
2 00045 099.5495 209.8095 0010008 271.0704 163.0687 13.69117124
1 00046           26000.00000000  .00000272  00000-0  31512-3 0 00006
2 00046 099.5495 209.8095 0010025 271.1488 192.9906 13.69116818
1 00047           26000.00000000  .00000142  00000-0  16381-3 0 00000
2 00047 099.5495 209.8095 0010031 271.2471 222.8921 13.69116964
1 00048           26000.00000000 -.00000187  00000-0 -21639-3 0 00001
2 00048 099.5905 241.4146 0010029 271.3412 252.8406 13.69116711
1 00049           26000.00000000 -.00000256  00000-0 -29600-3 0 00005
2 00049 099.5905 241.4146 0010022 271.4392 282.7426 13.69116765
1 00050           26000.00000000  .00000109  00000-0  12605-3 0 00008
2 00050 099.5905 241.4146 0010004 271.5101 312.6719 13.69116401
1 00051           26000.00000000  .00000602  00000-0  69600-3 0 00004
2 00051 099.5905 241.4146 0009980 271.5044 342.6779 13.69115951
1 00052           26000.00000000  .00000724  00000-0  83775-3 0 00009
2 00052 099.5905 241.4146 0009963 271.4263 012.7559 13.69115898
1 00053           26000.00000000  .00000286  00000-0  33140-3 0 00004
2 00053 099.5905 241.4146 0009957 271.3270 042.8549 13.69116389
1 00054           26000.00000000 -.00000386  00000-0 -44622-3 0 00005
2 00054 099.5905 241.4146 0009958 271.2300 072.9514 13.69117058
1 00055           26000.00000000 -.00000747  00000-0 -86398-3 0 00003
2 00055 099.5905 241.4146 0009965 271.1315 103.0498 13.69117362
1 00056           26000.00000000 -.00000543  00000-0 -62775-3 0 00001
2 00056 099.5905 241.4146 0009984 271.0614 133.1201 13.69117089
1 00057           26000.00000000 -.00000036  00000-0 -41806-4 0 00002
2 00057 099.5905 241.4146 0010007 271.0687 163.1133 13.69116544
1 00058           26000.00000000  .00000271  00000-0  31348-3 0 00002
2 00058 099.5905 241.4146 0010024 271.1471 193.0350 13.69116239
1 00059           26000.00000000  .00000139  00000-0  16133-3 0 00001
2 00059 099.5905 241.4146 0010030 271.2455 222.9365 13.69116385
1 00060           26000.00000000  .00000562  00000-0  17431-2 0 00000
2 00060 037.4107 004.5394 0005954 267.0055 066.4348 13.04266963
1 00061           26000.00000000  .00000438  00000-0  13566-2 0 00008
2 00061 037.4107 004.5395 0005960 267.0282 106.4119 13.04267055
1 00062           26000.00000000  .00000119  00000-0  36858-3 0 00005
2 00062 037.4106 004.5394 0005966 267.0703 146.3698 13.04267306
1 00063           26000.00000000 -.00000248  00000-0 -76806-3 0 00008
2 00063 037.4106 004.5393 0005967 267.1536 186.2863 13.04267661
1 00064           26000.00000000 -.00000590  00000-0 -18301-2 0 00004
2 00064 037.4107 004.5393 0005962 267.2100 226.2296 13.04268063
1 00065           26000.00000000 -.00000798  00000-0 -24721-2 0 00008
2 00065 037.4107 004.5395 0005956 267.2343 266.2049 13.04268315
1 00066           26000.00000000 -.00000671  00000-0 -20799-2 0 00000
2 00066 037.4106 004.5394 0005947 267.2358 306.2036 13.04268169
1 00067           26000.00000000 -.00000204  00000-0 -63206-3 0 00004
2 00067 037.4106 004.5393 0005939 267.1428 346.2970 13.04267674
1 00068           26000.00000000  .00000322  00000-0  99962-3 0 00002
2 00068 037.4107 004.5393 0005944 267.0261 026.4141 13.04267171
1 00069           26000.00000000  .00000574  00000-0  17790-2 0 00001
2 00069 037.3477 040.5721 0005945 266.9983 066.4001 13.04264586
1 00070           26000.00000000  .00000450  00000-0  13942-2 0 00000
2 00070 037.3476 040.5722 0005952 267.0211 106.3772 13.04264678
1 00071           26000.00000000  .00000131  00000-0  40528-3 0 00008
2 00071 037.3476 040.5721 0005957 267.0631 146.3351 13.04264930
1 00072           26000.00000000 -.00000237  00000-0 -73369-3 0 00007
2 00072 037.3476 040.5720 0005958 267.1464 186.2517 13.04265285
1 00073           26000.00000000 -.00000580  00000-0 -17975-2 0 00009
2 00073 037.3477 040.5721 0005953 267.2027 226.1950 13.04265687
